{
  "type": "FeatureCollection",
  "features": [
    {
      "type": "Feature",
      "properties": {
        "norad_id": 38709,
        "name": "EXACTVIEW-1 (ADS-1B)",
        "group": "resource",
        "lat": 12.287435951751986,
        "lon": 89.15132906240561,
        "alt_km": 802.2124789311074,
        "timestamp": "2025-12-08T19:31:48.484796+00:00",
        "meta_object_name": "EXACTVIEW-1 (ADS-1B)",
        "meta_object_id": "2012-039C",
        "meta_epoch": "2025-12-08T07:40:30.627552",
        "meta_mean_motion": 14.24905406,
        "meta_eccentricity": 0.00109037,
        "meta_inclination": 98.9635,
        "meta_ra_of_asc_node": 90.6172,
        "meta_arg_of_pericenter": 6.9772,
        "meta_mean_anomaly": 353.1557,
        "meta_ephemeris_type": 0,
        "meta_classification_type": "U",
        "meta_norad_cat_id": 38709,
        "meta_element_set_no": 999,
        "meta_rev_at_epoch": 69552,
        "meta_bstar": 0.00017039039,
        "meta_mean_motion_dot": 3.52e-06,
        "meta_mean_motion_ddot": 0,
        "tle_line1": "1 38709U 12039C   25342.31979893  .00000352  00000+0  17039-3 0  9999",
        "tle_line2": "2 38709  98.9635  90.6172 0010903   6.9772 353.1557 14.24905406695529"
      },
      "geometry": {
        "type": "Point",
        "coordinates": [
          89.15132906240561,
          12.287435951751986
        ]
      }
    },
    {
      "type": "Feature",
      "properties": {
        "norad_id": 38755,
        "name": "SPOT 6",
        "group": "resource",
        "lat": -72.49450428134617,
        "lon": 74.72273533703495,
        "alt_km": 705.7618988465056,
        "timestamp": "2025-12-08T19:31:48.484805+00:00",
        "meta_object_name": "SPOT 6",
        "meta_object_id": "2012-047A",
        "meta_epoch": "2025-12-08T06:41:59.883648",
        "meta_mean_motion": 14.58597358,
        "meta_eccentricity": 0.00010807,
        "meta_inclination": 98.1579,
        "meta_ra_of_asc_node": 47.1457,
        "meta_arg_of_pericenter": 102.4343,
        "meta_mean_anomaly": 257.6977,
        "meta_ephemeris_type": 0,
        "meta_classification_type": "U",
        "meta_norad_cat_id": 38755,
        "meta_element_set_no": 999,
        "meta_rev_at_epoch": 70522,
        "meta_bstar": 0.00019073011,
        "meta_mean_motion_dot": 8.42e-06,
        "meta_mean_motion_ddot": 0,
        "tle_line1": "1 38755U 12047A   25342.27916532  .00000842  00000+0  19073-3 0  9999",
        "tle_line2": "2 38755  98.1579  47.1457 0001080 102.4343 257.6977 14.58597358705227"
      },
      "geometry": {
        "type": "Point",
        "coordinates": [
          74.72273533703495,
          -72.49450428134617
        ]
      }
    },
    {
      "type": "Feature",
      "properties": {
        "norad_id": 39019,
        "name": "PLEIADES 1B",
        "group": "resource",
        "lat": -4.922107560744297,
        "lon": -125.18231562303579,
        "alt_km": 701.6067063474884,
        "timestamp": "2025-12-08T19:31:48.484814+00:00",
        "meta_object_name": "PLEIADES 1B",
        "meta_object_id": "2012-068A",
        "meta_epoch": "2025-12-08T07:09:36.907776",
        "meta_mean_motion": 14.58546877,
        "meta_eccentricity": 0.00012182,
        "meta_inclination": 98.1801,
        "meta_ra_of_asc_node": 55.0202,
        "meta_arg_of_pericenter": 87.3022,
        "meta_mean_anomaly": 272.8317,
        "meta_ephemeris_type": 0,
        "meta_classification_type": "U",
        "meta_norad_cat_id": 39019,
        "meta_element_set_no": 999,
        "meta_rev_at_epoch": 69302,
        "meta_bstar": 0.0001972489,
        "meta_mean_motion_dot": 8.71e-06,
        "meta_mean_motion_ddot": 0,
        "tle_line1": "1 39019U 12068A   25342.29834384  .00000871  00000+0  19725-3 0  9998",
        "tle_line2": "2 39019  98.1801  55.0202 0001218  87.3022 272.8317 14.58546877693024"
      },
      "geometry": {
        "type": "Point",
        "coordinates": [
          -125.18231562303579,
          -4.922107560744297
        ]
      }
    },
    {
      "type": "Feature",
      "properties": {
        "norad_id": 39030,
        "name": "GOKTURK 2",
        "group": "resource",
        "lat": 15.610155434702396,
        "lon": 6.823966024941904,
        "alt_km": 644.7254424697176,
        "timestamp": "2025-12-08T19:31:48.484823+00:00",
        "meta_object_name": "GOKTURK 2",
        "meta_object_id": "2012-073A",
        "meta_epoch": "2025-12-08T07:23:38.503392",
        "meta_mean_motion": 14.75282354,
        "meta_eccentricity": 8.971e-05,
        "meta_inclination": 97.6903,
        "meta_ra_of_asc_node": 184.1797,
        "meta_arg_of_pericenter": 104.9263,
        "meta_mean_anomaly": 255.2046,
        "meta_ephemeris_type": 0,
        "meta_classification_type": "U",
        "meta_norad_cat_id": 39030,
        "meta_element_set_no": 999,
        "meta_rev_at_epoch": 69636,
        "meta_bstar": 0.00018972836,
        "meta_mean_motion_dot": 1.237e-05,
        "meta_mean_motion_ddot": 0,
        "tle_line1": "1 39030U 12073A   25342.30808453  .00001237  00000+0  18973-3 0  9998",
        "tle_line2": "2 39030  97.6903 184.1797 0000897 104.9263 255.2046 14.75282354696362"
      },
      "geometry": {
        "type": "Point",
        "coordinates": [
          6.823966024941904,
          15.610155434702396
        ]
      }
    },
    {
      "type": "Feature",
      "properties": {
        "norad_id": 39084,
        "name": "LANDSAT 8",
        "group": "resource",
        "lat": 14.887312875513183,
        "lon": 48.746067020696515,
        "alt_km": 703.10073274551,
        "timestamp": "2025-12-08T19:31:48.484832+00:00",
        "meta_object_name": "LANDSAT 8",
        "meta_object_id": "2013-008A",
        "meta_epoch": "2025-12-08T06:16:36.164352",
        "meta_mean_motion": 14.57107807,
        "meta_eccentricity": 0.0001124,
        "meta_inclination": 98.2077,
        "meta_ra_of_asc_node": 50.401,
        "meta_arg_of_pericenter": 86.4355,
        "meta_mean_anomaly": 273.6972,
        "meta_ephemeris_type": 0,
        "meta_classification_type": "U",
        "meta_norad_cat_id": 39084,
        "meta_element_set_no": 999,
        "meta_rev_at_epoch": 67009,
        "meta_bstar": 0.00020221811,
        "meta_mean_motion_dot": 8.66e-06,
        "meta_mean_motion_ddot": 0,
        "tle_line1": "1 39084U 13008A   25342.26152968  .00000866  00000+0  20222-3 0  9991",
        "tle_line2": "2 39084  98.2077  50.4010 0001124  86.4355 273.6972 14.57107807670096"
      },
      "geometry": {
        "type": "Point",
        "coordinates": [
          48.746067020696515,
          14.887312875513183
        ]
      }
    },
    {
      "type": "Feature",
      "properties": {
        "norad_id": 39086,
        "name": "SARAL",
        "group": "resource",
        "lat": -15.459825217466419,
        "lon": 169.17991156578398,
        "alt_km": 788.5519814784984,
        "timestamp": "2025-12-08T19:31:48.484841+00:00",
        "meta_object_name": "SARAL",
        "meta_object_id": "2013-009A",
        "meta_epoch": "2025-12-08T06:11:40.310016",
        "meta_mean_motion": 14.3275483,
        "meta_eccentricity": 0.00027729,
        "meta_inclination": 98.5505,
        "meta_ra_of_asc_node": 166.247,
        "meta_arg_of_pericenter": 117.131,
        "meta_mean_anomaly": 243.0157,
        "meta_ephemeris_type": 0,
        "meta_classification_type": "U",
        "meta_norad_cat_id": 39086,
        "meta_element_set_no": 999,
        "meta_rev_at_epoch": 66826,
        "meta_bstar": 0.00011641179,
        "meta_mean_motion_dot": 2.73e-06,
        "meta_mean_motion_ddot": 0,
        "tle_line1": "1 39086U 13009A   25342.25810544  .00000273  00000+0  11641-3 0  9991",
        "tle_line2": "2 39086  98.5505 166.2470 0002772 117.1310 243.0157 14.32754830668265"
      },
      "geometry": {
        "type": "Point",
        "coordinates": [
          169.17991156578398,
          -15.459825217466419
        ]
      }
    },
    {
      "type": "Feature",
      "properties": {
        "norad_id": 39150,
        "name": "GAOFEN-1",
        "group": "resource",
        "lat": -44.28350938298888,
        "lon": -134.27413182915572,
        "alt_km": 642.5853238195423,
        "timestamp": "2025-12-08T19:31:48.484850+00:00",
        "meta_object_name": "GAOFEN-1",
        "meta_object_id": "2013-018A",
        "meta_epoch": "2025-12-08T07:07:53.831712",
        "meta_mean_motion": 14.76522789,
        "meta_eccentricity": 0.0017979,
        "meta_inclination": 97.9332,
        "meta_ra_of_asc_node": 53.0349,
        "meta_arg_of_pericenter": 156.9231,
        "meta_mean_anomaly": 203.2791,
        "meta_ephemeris_type": 0,
        "meta_classification_type": "U",
        "meta_norad_cat_id": 39150,
        "meta_element_set_no": 999,
        "meta_rev_at_epoch": 68007,
        "meta_bstar": 0.00023466521,
        "meta_mean_motion_dot": 1.589e-05,
        "meta_mean_motion_ddot": 0,
        "tle_line1": "1 39150U 13018A   25342.29715083  .00001589  00000+0  23467-3 0  9999",
        "tle_line2": "2 39150  97.9332  53.0349 0017979 156.9231 203.2791 14.76522789680073"
      },
      "geometry": {
        "type": "Point",
        "coordinates": [
          -134.27413182915572,
          -44.28350938298888
        ]
      }
    }
  ]
}